{"fetched_at":"2026-03-29T16:36:15Z","count":15609,"tles":[{"name":"STARLINK-32865","line1":"1 62952U 25029E   26087.53506327  .00020598  00000+0  70531-3 0  9998","line2":"2 62952  53.1602 144.8693 0001388  84.5599 275.5560 15.30215110 64210","category":"Starlink"}]}